ONEWEB-0393             
1 50473U 21132E   24054.88793238  .00000023  00000+0  24356-4 0  9999
2 50473  87.9263 173.7690 0001384 117.3841 242.7433 13.19245440106926
ONEWEB-0394             
1 50474U 21132F   24054.74414794  .00000058  00000+0  11540-3 0  9990
2 50474  87.9227 143.5291 0001950 110.4761 249.6580 13.18685861110303
ONEWEB-0395             
1 50475U 21132G   24054.86733326 -.00000395  00000+0 -11501-2 0  9991
2 50475  87.9016 188.9436 0001503 116.5336 243.5946 13.11416400106323
ONEWEB-0396             
1 50476U 21132H   24054.73782218  .00000045  00000+0  81607-4 0  9998
2 50476  87.9233 143.5229 0002046 111.4486 248.6865 13.18685970110345
ONEWEB-0397             
1 50477U 21132J   24054.75204589  .00000006  00000+0 -17202-4 0  9999
2 50477  87.9233 143.5213 0002060 112.5065 247.6285 13.18686399110329
ONEWEB-0398             
1 50478U 21132K   24054.91117959  .00000159  00000+0  41269-3 0  9999
2 50478  87.9009 188.9191 0001178 113.6996 246.4256 13.11415962104959
ONEWEB-0399             
1 50479U 21132L   24054.89657495  .00000517  00000+0  14234-2 0  9990
2 50479  87.9012 188.9367 0002049 107.5453 252.5899 13.11417938104942
ONEWEB-0400             
1 50480U 21132M   24054.80736921  .00000063  00000+0  12786-3 0  9992
2 50480  87.9229 143.5178 0001630 106.0864 254.0447 13.18686850110329
